C/2017 D2 (Barros),e,31.2580,330.9499,334.5495,5577,0.0000024,0.99955326,0.0000,07/14.9017/2017,2000,g 11.0,4.0
# From MPC114598
C/2017 D3 (ATLAS),h,04/27.4294/2017,125.5871,186.6872,340.8571,1.002232,4.971805,2000,8.0,4.0
# From MPC110495
P/2017 D4 (PANSTARRS),e,10.5311,264.9376,212.2657,7.561088,0.0474054,0.62830778,79.4049,04/07.0/2021,2000,g 13.0,4.0
# From MPC104794
C/2017 D5 (PANSTARRS),e,131.0458,92.7067,287.7003,114.1945,0.0008077,0.98110073,0.0000,01/09.6483/2017,2000,g 16.0,4.0
# From MPC106346
C/2017 E1 (Borisov),h,04/10.6124/2017,14.5724,142.5641,152.7172,1.003142,0.902977,2000,14.0,4.0
# From MPC109144
C/2017 E2 (Tsuchinshan),e,79.0915,11.6290,89.3480,21.52498,0.0098694,0.89085917,17.6794,04/07.0/2021,2000,g 11.5,4.0
# From MPC115882
C/2017 E3 (PANSTARRS),h,06/07.8431/2017,70.6437,220.7560,334.5110,1.006476,5.938420,2000,6.5,4.0
# From MPC105239
C/2017 E4 (Lovejoy),h,04/23.5971/2017,88.0519,222.9614,87.0644,1.001496,0.490996,2000,17.0,4.0
# From MPC105239
C/2017 E5 (Lemmon),e,122.6700,206.3869,306.9483,400.0344,0.0001232,0.99553080,0.0000,06/10.8863/2016,2000,g 13.0,4.0
# From MPC111769
C/2017 F1 (Lemmon),h,11/29.9199/2017,146.4611,158.7881,64.7463,1.003168,4.496147,2000,10.5,4.0
# From MPC114598
C/2017 F2 (PANSTARRS),h,11/27.0972/2017,42.5285,38.6788,135.0188,1.003252,6.931469,2000,7.5,4.0
# From MPC104794
P/2017 G1 (PANSTARRS),e,4.7750,249.6305,224.5151,7.285495,0.0501205,0.65291560,90.5104,04/07.0/2021,2000,g 13.5,4.0
# From MPC108595
P/2017 G2 (PANSTARRS),e,47.9462,79.7878,105.5429,8.064705,0.0430350,0.64800501,60.0726,04/07.0/2021,2000,g 13.0,4.0
# From MPC109144
C/2017 G3 (PANSTARRS),e,159.0516,279.4745,73.1124,314.9929,0.0001763,0.99178449,0.0000,04/15.9613/2017,2000,g 14.0,4.0
# From MPEC 2021-F20
C/2017 K1 (PANSTARRS),h,03/17.6989/2018,154.0162,225.6771,4.4198,1.002647,7.289581,2000,7.0,4.0
# From MPEC 2021-FB5
C/2017 K2 (PANSTARRS),h,12/19.7763/2022,87.5507,88.2478,236.1861,1.000530,1.797746,2000,1.5,4.0
# From MPC106346
P/2017 K3 (Gasparovic),e,4.2731,354.2811,253.5001,5.582900,0.0747161,0.58033554,105.1167,04/07.0/2021,2000,g 14.5,4.0
# From MPC114598
C/2017 K4 (ATLAS),e,16.6796,298.8716,15.2613,28.56349,0.0064564,0.90714003,7.6474,04/07.0/2021,2000,g 10.0,4.0
# From MPEC 2021-F20
C/2017 K5 (PANSTARRS),h,03/26.6363/2020,82.2346,102.3720,172.0020,1.006192,7.680649,2000,5.0,4.0
# From MPC114599
C/2017 K6 (Jacques),e,57.2441,85.0191,303.7517,1084,0.0000276,0.99815741,0.0000,01/03.4888/2018,2000,g 11.0,4.0
# From MPC110083
C/2017 M3 (PANSTARRS),e,77.5662,7.0221,110.3261,166.8060,0.0004575,0.97208618,0.0000,04/28.1176/2017,2000,g 10.5,4.0
# From MPC118093
C/2017 M4 (ATLAS),h,01/17.9324/2019,105.6485,65.8854,167.6015,1.001281,3.253176,2000,6.0,4.0
# From MPEC 2021-F20
C/2017 M5 (TOTAS),h,06/04.3061/2018,15.8754,216.2844,92.7756,1.005465,5.995250,2000,6.5,4.0
# From MPC114599
C/2017 O1 (ASASSN),e,39.9205,25.7497,20.8387,357.9203,0.0001456,0.99582675,0.0000,10/14.9985/2017,2000,g 11.0,4.0
# From MPC114599
P/2017 P1 (PANSTARRS),e,7.6953,221.3964,122.3489,7.897964,0.0444049,0.31086176,45.3935,04/07.0/2021,2000,g 10.0,4.0
# From MPC114599
C/2017 P2 (PANSTARRS),e,50.0514,165.4743,132.3929,2259,0.0000092,0.99890771,0.0000,12/06.6142/2017,2000,g 10.0,4.0
# From MPC114599
P/2017 R1 (PANSTARRS),e,2.5742,143.6166,178.6156,4.135063,0.1172144,0.19568935,170.8443,04/07.0/2021,2000,g 13.5,4.0
# From MPC108595
C/2017 S2 (PANSTARRS),e,12.6758,62.3874,305.9812,20.56016,0.0105722,0.82435405,13.9136,04/07.0/2021,2000,g 13.0,4.0
# From MPC114599
C/2017 S3 (PANSTARRS),h,08/16.0891/2018,99.1664,171.2377,255.8353,1.000057,0.207786,2000,11.0,4.0
# From MPC114599
P/2017 S5 (ATLAS),e,11.8518,252.3702,99.8772,3.167825,0.1748084,0.31427126,235.6249,04/07.0/2021,2000,g 14.0,4.0
# From MPC109591
C/2017 S6 (Catalina),h,02/26.3454/2018,152.8674,131.0400,134.8340,1.000665,1.545058,2000,12.5,4.0
# From MPC114599
C/2017 S7 (Lemmon),h,05/24.8626/2017,124.2280,262.7730,187.5632,1.000000,7.606830,2000,7.0,4.0
# From MPC114599
P/2017 S8 (PANSTARRS),e,29.8242,191.6005,254.7587,2.780269,0.2126051,0.39182526,247.9490,04/07.0/2021,2000,g 16.0,4.0
# From MPC107050
P/2017 S9 (PANSTARRS),e,14.1439,146.2230,237.7057,3.153610,0.1759916,0.30522154,238.2527,04/07.0/2021,2000,g 17.0,4.0
# From MPC114600
C/2017 T1 (Heinze),e,96.8483,102.3485,96.9520,17986,0.0000004,0.99996757,0.0000,02/21.1131/2018,2000,g 14.5,4.0
# From MPEC 2021-FB5
C/2017 T2 (PANSTARRS),e,57.2262,64.3771,93.0003,3049,0.0000059,0.99947020,0.0000,05/04.9350/2020,2000,g  5.0,4.0
# From MPC114600
C/2017 T3 (ATLAS),e,88.0883,230.1030,246.8307,1201,0.0000237,0.99931333,0.0000,07/18.8771/2018,2000,g 10.0,4.0
# From MPC115882
P/2017 TW13 (Lemmon),e,44.8501,322.2977,119.9823,7.142931,0.0516285,0.70947991,52.7192,04/07.0/2021,2000,g 15.0,2.0
# From MPC114600
C/2017 U2 (Fuls),e,95.3876,149.7074,147.8050,3165,0.0000055,0.99788045,0.0000,08/28.2129/2017,2000,g  9.0,4.0
# From MPC114600
P/2017 U3 (PANSTARRS),e,15.9169,165.1082,296.8331,4.929671,0.0900486,0.09888758,65.0086,04/07.0/2021,2000,g 11.0,4.0
# From MPC114600
C/2017 U4 (PANSTARRS),h,09/23.2998/2018,158.2149,245.9414,159.0258,1.002180,7.720929,2000,7.0,4.0
# From MPC114600
C/2017 U5 (PANSTARRS),e,18.9749,163.0851,262.0205,16.87571,0.0142171,0.74400733,17.1389,04/07.0/2021,2000,g 12.0,4.0
# From MPEC 2021-F20
C/2017 U7 (PANSTARRS),h,09/14.1039/2019,142.5905,276.2445,326.3099,1.000586,6.423008,2000,8.3,2.0
# From MPC114600
C/2017 W2 (Leonard),e,98.1989,312.8421,169.0229,13.65626,0.0195302,0.71063617,24.4676,04/07.0/2021,2000,g 11.0,4.0
# From MPC114601
P/2017 W3 (Gibbs),e,18.1678,210.2854,327.8113,7.842523,0.0448766,0.50742418,50.8477,04/07.0/2021,2000,g 10.5,4.0
# From MPC115883
C/2017 X1 (PANSTARRS),e,31.3055,251.1304,283.2828,31.30461,0.0056272,0.85084040,5.7782,04/07.0/2021,2000,g 10.0,4.0
# From MPC117069
C/2017 Y1 (PANSTARRS),e,55.2665,307.5303,134.2991,1794,0.0000130,0.99793187,0.0000,08/31.1777/2017,2000,g 11.5,4.0
# From MPEC 2021-FB5
C/2017 Y2 (PANSTARRS),h,11/04.7423/2020,128.4113,65.9944,147.8909,1.000768,4.632190,2000,15.0,4.0
# From MPC111770
P/2017 Y3 (Leonard),e,27.5593,153.8456,67.6055,9.845154,0.0319058,0.87006263,36.7377,04/07.0/2021,2000,g 16.5,4.0
# From MPC114601
C/2018 A1 (PANSTARRS),e,53.6101,336.6549,96.2548,25.09864,0.0078384,0.90382397,9.9117,04/07.0/2021,2000,g 12.5,4.0
# From MPEC 2021-F20
C/2018 A3 (ATLAS),e,139.5412,194.2938,86.3838,454.1499,0.0001018,0.99278772,0.0000,01/12.5153/2019,2000,g  8.5,4.0
# From MPC114601
C/2018 A4 (PANSTARRS),e,3.1484,97.6269,356.0270,12.19924,0.0231316,0.80334732,24.3924,04/07.0/2021,2000,g 14.0,4.0
# From MPC109147
P/2018 A5 (PANSTARRS),e,23.5821,87.8213,359.5568,5.634549,0.0736912,0.52232746,95.2079,04/07.0/2021,2000,g 15.0,4.0
# From MPEC 2021-F20
C/2018 A6 (Gibbs),e,77.0046,340.3756,264.5495,15.29318,0.0164800,0.80258161,10.4305,04/07.0/2021,2000,g  9.0,4.0
# From MPEC 2021-F20
C/2018 B1 (Lemmon),h,03/29.3471/2018,162.4200,133.1908,68.3129,1.000685,5.116903,2000,9.0,4.0
# From MPC114601
P/2018 C1 (Lemmon-Read),e,5.1199,270.3776,235.6950,5.654320,0.0733050,0.53294962,83.2988,04/07.0/2021,2000,g 13.5,4.0
# From MPC114601
C/2018 C2 (Lemmon),h,06/01.6038/2018,34.4599,91.1522,134.1119,1.000690,1.958619,2000,13.0,4.0
# From MPEC 2021-F20
C/2018 DO4 (Lemmon),e,160.4718,251.1928,176.0822,25.73564,0.0075492,0.90639161,4.5125,04/07.0/2021,2000,g 11.0,4.0
# From MPEC 2021-F20
C/2018 E1 (ATLAS),e,72.5156,146.8660,299.3844,53.92683,0.0024888,0.94990980,2.7020,04/07.0/2021,2000,g 10.5,4.0
# From MPC114602
C/2018 E2 (Barros),e,97.7011,67.1926,277.4641,4037,0.0000038,0.99902917,0.0000,12/24.0272/2017,2000,g 10.5,4.0
# From MPC114602
C/2018 EN4 (NEOWISE),e,81.6657,136.1411,35.0100,18.19600,0.0126981,0.92025390,13.1463,04/07.0/2021,2000,g 15.0,4.0
# From MPC114602
C/2018 EF9 (Lemmon),e,84.6343,172.5631,72.6201,539.8649,0.0000786,0.99711426,0.0000,05/22.7009/2018,2000,g 18.0,2.0
# From MPEC 2021-F20
C/2018 F1 (Grauer),e,46.0771,177.2759,71.6319,280.1172,0.0002102,0.98930988,0.0000,12/13.6726/2018,2000,g 11.5,4.0
# From MPC110084
C/2018 F3 (Johnson),p,08/15.2314/2017,105.5348,293.0113,2.483172,173.0311,2000,13.0,4.0
# From MPC119996
C/2018 F4 (PANSTARRS),h,12/04.1305/2019,78.0916,26.5141,263.2310,1.001238,3.440476,2000,11.9,2.0
# From MPC114602
P/2018 H2 (PANSTARRS),e,7.3884,68.3864,119.9636,4.392209,0.1070729,0.54012163,125.3363,04/07.0/2021,2000,g 16.6,2.0
# From MPC114602
C/2018 K1 (Weiland),e,164.1955,260.0508,325.0976,29.99713,0.0059991,0.93724903,6.5760,04/07.0/2021,2000,g 14.9,4.0
# From MPEC 2021-F20
C/2018 KJ3 (Lemmon),e,136.7074,91.6040,217.6712,856.8553,0.0000393,0.99576420,0.0000,09/09.7427/2019,2000,g 12.2,2.0
# From MPC114602
P/2018 L1 (PANSTARRS),e,10.5916,268.6316,17.9918,3.651051,0.1412789,0.48280091,123.8163,04/07.0/2021,2000,g 15.0,4.0
# From MPEC 2021-F20
C/2018 L2 (ATLAS),e,67.3778,243.0232,56.2783,260.3633,0.0002346,0.99342090,0.0000,12/02.6887/2018,2000,g 10.0,4.0
# From MPC114603
P/2018 L4 (PANSTARRS),e,26.6251,145.1537,140.5741,4.941127,0.0897356,0.66010026,87.9542,04/07.0/2021,2000,g 17.5,4.0
# From MPC119996
P/2018 L5 (Leonard),e,2.2081,219.1170,93.8226,3.627915,0.1426325,0.36476422,152.3059,04/07.0/2021,2000,g 14.5,4.0
# From MPC117070
C/2018 M1 (Catalina),e,37.2948,339.4137,14.1691,21.36907,0.0099776,0.93904889,9.9940,04/07.0/2021,2000,g 15.5,4.0
# From MPC112393
C/2018 N1 (NEOWISE),e,159.4433,292.4487,354.6373,354.7717,0.0001475,0.99630693,0.0000,08/01.9679/2018,2000,g 15.5,4.0
# From MPEC 2021-FB5
C/2018 N2 (ASASSN),h,11/10.9760/2019,77.5297,25.2406,24.4062,1.000140,3.124868,2000,6.0,4.0
# From MPC114603
C/2018 O1 (ATLAS),e,154.0372,87.6542,162.5974,27.93247,0.0066764,0.94412825,6.3384,04/07.0/2021,2000,g 17.0,4.0
# From MPC114603
P/2018 P3 (PANSTARRS),e,8.9093,59.1800,305.8797,3.006066,0.1891065,0.41656126,172.1077,04/07.0/2021,2000,g 14.5,4.0
# From MPC114603
P/2018 P4 (PANSTARRS),e,23.1076,353.0717,8.2353,6.672883,0.0571786,0.45047489,50.3713,04/07.0/2021,2000,g 12.0,4.0
# From MPEC 2021-F20
